IRNSS-1D-I04
1 40547U 15018A   23123.75401780 -.00000296  00000+0  00000+0 0  9994
2 40547  28.3202 259.7382 0023279 179.9970 164.9808  1.00273615 29552
